LANDSAT 9               
1 49260U 21088A   24216.48417870  .00000857  00000+0  20021-3 0  9991
2 49260  98.2296 285.4922 0001382  89.7190 270.4166 14.57106833151572
